IRIDIUM 126             
1 42809U 17039G   24135.46243856  .00000275  00000+0  91119-4 0  9994
2 42809  86.3934 312.8099 0002256  85.5935 274.5518 14.34217814360488
IRIDIUM 124             
1 42810U 17039H   24135.58115150  .00001540  00000+0  45183-3 0  9999
2 42810  86.4512 249.4615 0002543  97.4701 262.6789 14.43275399364972
IRIDIUM 128             
1 42811U 17039J   24135.52294059  .00000119  00000+0  35342-4 0  9998
2 42811  86.3977 344.3092 0002008  86.7377 273.4049 14.34217141360524
IRIDIUM 133             
1 42955U 17061A   24135.06627057  .00000403  00000+0  13698-3 0  9994
2 42955  86.3977 344.5993 0002184  85.6335 274.5110 14.34222355345259
IRIDIUM 100             
1 42956U 17061B   24135.54832012  .00000847  00000+0  29554-3 0  9997
2 42956  86.3991 344.3319 0001949  99.7274 260.4142 14.34209143345329
IRIDIUM 122             
1 42957U 17061C   24135.51659012  .00000793  00000+0  27614-3 0  9997
2 42957  86.3964 344.3450 0002254  90.4052 269.7402 14.34221888345329
IRIDIUM 129             
1 42958U 17061D   24135.33266313  .00000133  00000+0  40466-4 0  9995
2 42958  86.3971 344.4814 0002232  82.6941 277.4508 14.34212548345314
